NORAD_CAT_ID,OBJECT_NAME,OBJECT_TYPE,EPOCH,MEAN_MOTION,ECCENTRICITY,INCLINATION,RA_OF_ASC_NODE,ARG_OF_PERICENTER,MEAN_ANOMALY,BSTAR,MEAN_MOTION_DOT,MEAN_MOTION_DDOT,TLE_LINE0,TLE_LINE1,TLE_LINE2,SEMIMAJOR_AXIS,PERIOD,APOGEE,PERIGEE,DECAYED
55270.0,STARLINK-5301,PAYLOAD,2023-05-16 14:19:47,14.98462505,0.0002583,70.0001,116.8007,279.0148,81.0719,-0.0022517,-0.00026948,0.0,0 STARLINK-5301,1 55270U 23010B   23136.59707387 -.00026948  00000-0 -22517-2 0  9996,2 55270  70.0001 116.8007 0002583 279.0148  81.0719 14.98462505 18785,6949.783,96.099,573.443,569.853,0.0
55270.0,STARLINK-5301,PAYLOAD,2023-05-16 22:20:30,14.98322478,0.0002931,70.0008,115.9597,273.5265,86.5559,-3.0804e-05,-4.6e-06,0.0,0 STARLINK-5301,1 55270U 23010B   23136.93090710 -.00000460  00000-0 -30804-4 0  9990,2 55270  70.0008 115.9597 0002931 273.5265  86.5559 14.98322478 18520,6950.216,96.107,574.118,570.044,0.0
55270.0,STARLINK-5301,PAYLOAD,2023-05-17 04:00:00,14.98344666,0.0002666,70.0002,115.3637,271.1949,280.3104,-0.0028586,-0.00034048,0.0,0 STARLINK-5301,1 55270U 23010B   23137.16667824 -.00034048  00000-0 -28586-2 0  9993,2 55270  70.0002 115.3637 0002666 271.1949 280.3104 14.98344666 18557,6950.148,96.106,573.865,570.16,0.0
55270.0,STARLINK-5301,PAYLOAD,2023-05-17 22:00:00,14.98324313,0.0002654,70.0003,113.4725,265.2815,10.5571,0.0020109,0.00023979,0.0,0 STARLINK-5301,1 55270U 23010B   23137.91667824  .00023979  00000-0  20109-2 0  9998,2 55270  70.0003 113.4725 0002654 265.2815  10.5571 14.98324313 18668,6950.21,96.107,573.92,570.231,0.0
55270.0,STARLINK-5301,PAYLOAD,2023-05-18 07:59:19,14.98326369,0.0001934,70.0011,112.4261,267.7487,92.345,-3.0416e-05,-4.56e-06,0.0,0 STARLINK-5301,1 55270U 23010B   23138.33286548 -.00000456  00000-0 -30416-4 0  9996,2 55270  70.0011 112.4261 0001934 267.7487  92.3450 14.98326369 18738,6950.204,96.107,573.413,570.725,0.0
55270.0,STARLINK-5301,PAYLOAD,2023-05-18 22:24:31,14.98328911,0.0002609,69.9992,110.9102,272.0485,88.0375,1.3149e-05,6.4e-07,0.0,0 STARLINK-5301,1 55270U 23010B   23138.93370106  .00000064  00000-0  13149-4 0  9993,2 55270  69.9992 110.9102 0002609 272.0485  88.0375 14.98328911 19135,6950.196,96.107,573.875,570.248,0.0
55270.0,STARLINK-5301,PAYLOAD,2023-05-19 04:49:03,14.98330868,0.000259,69.9993,110.2358,269.9465,90.1398,1.171e-05,4.7e-07,0.0,0 STARLINK-5301,1 55270U 23010B   23139.20073975  .00000047  00000-0  11710-4 0  9991,2 55270  69.9993 110.2358 0002590 269.9465  90.1398 14.98330868 18866,6950.19,96.107,573.855,570.255,0.0
55270.0,STARLINK-5301,PAYLOAD,2023-05-19 08:01:19,14.98331902,0.0002568,69.9994,109.8991,270.0178,90.0687,2.2943e-05,1.81e-06,0.0,0 STARLINK-5301,1 55270U 23010B   23139.33425870  .00000181  00000-0  22943-4 0  9999,2 55270  69.9994 109.8991 0002568 270.0178  90.0687 14.98331902 19190,6950.187,96.107,573.837,570.267,0.0
55270.0,STARLINK-5301,PAYLOAD,2023-05-20 04:51:04,14.98334378,0.0002513,69.9997,107.7118,267.6194,92.4677,6.5793e-05,6.92e-06,0.0,0 STARLINK-5301,1 55270U 23010B   23140.20213489  .00000692  00000-0  65793-4 0  9995,2 55270  69.9997 107.7118 0002513 267.6194  92.4677 14.98334378 19017,6950.179,96.107,573.791,570.298,0.0
55270.0,STARLINK-5301,PAYLOAD,2023-05-20 08:03:20,14.98336582,0.0002497,69.9998,107.3746,268.9906,91.0967,8.9647e-05,9.77e-06,0.0,0 STARLINK-5301,1 55270U 23010B   23140.33565250  .00000977  00000-0  89647-4 0  9995,2 55270  69.9998 107.3746 0002497 268.9906  91.0967 14.98336582 19349,6950.173,96.107,573.773,570.302,0.0
55270.0,STARLINK-5301,PAYLOAD,2023-05-21 08:05:21,14.98336503,0.0002407,70.0,104.85,268.9207,91.1676,6.6585e-05,7.02e-06,0.0,0 STARLINK-5301,1 55270U 23010B   23141.33705022  .00000702  00000-0  66585-4 0  9991,2 55270  70.0000 104.8500 0002407 268.9207  91.1676 14.98336503 19184,6950.173,96.107,573.711,570.365,0.0
55270.0,STARLINK-5301,PAYLOAD,2023-05-22 03:18:59,14.98324212,0.0002185,70.0006,102.8311,265.269,94.8219,-0.00010279,-1.319e-05,0.0,0 STARLINK-5301,1 55270U 23010B   23142.13818301 -.00001319  00000-0 -10279-3 0  9990,2 55270  70.0006 102.8311 0002185 265.2690  94.8219 14.98324212 19308,6950.211,96.107,573.594,570.557,0.0
55270.0,STARLINK-5301,PAYLOAD,2023-05-22 06:31:15,14.98323543,0.0002203,70.0005,102.4945,264.3964,95.6944,-0.00010746,-1.375e-05,0.0,0 STARLINK-5301,1 55270U 23010B   23142.27170407 -.00001375  00000-0 -10746-3 0  9994,2 55270  70.0005 102.4945 0002203 264.3964  95.6944 14.98323543 19637,6950.213,96.107,573.609,570.547,0.0
55270.0,STARLINK-5301,PAYLOAD,2023-05-22 20:56:27,14.9833014,0.0002188,70.0005,100.9786,259.7958,100.2955,-1.8765e-05,-3.17e-06,0.0,0 STARLINK-5301,1 55270U 23010B   23142.87253830 -.00000317  00000-0 -18765-4 0  9997,2 55270  70.0005 100.9786 0002188 259.7958 100.2955 14.98330140 19722,6950.192,96.107,573.578,570.537,0.0
55270.0,STARLINK-5301,PAYLOAD,2023-05-23 01:44:51,14.98331016,0.0002189,70.0005,100.4736,259.557,100.5342,-6.3113e-06,-1.68e-06,0.0,0 STARLINK-5301,1 55270U 23010B   23143.07281732 -.00000168  00000-0 -63113-5 0  9994,2 55270  70.0005 100.4736 0002189 259.5570 100.5342 14.98331016 19446,6950.19,96.107,573.576,570.533,0.0
55270.0,STARLINK-5301,PAYLOAD,2023-05-23 06:33:15,14.98330908,0.0002202,70.0005,99.9685,260.0122,100.0788,-6.2615e-06,-1.68e-06,0.0,0 STARLINK-5301,1 55270U 23010B   23143.27309745 -.00000168  00000-0 -62615-5 0  9997,2 55270  70.0005  99.9685 0002202 260.0122 100.0788 14.98330908 19782,6950.19,96.107,573.586,570.525,0.0
55270.0,STARLINK-5301,PAYLOAD,2023-05-24 01:46:52,14.98325755,0.0002423,69.9999,97.9486,264.7273,95.361,0.00010204,1.125e-05,0.0,0 STARLINK-5301,1 55270U 23010B   23144.07421846  .00001125  00000-0  10204-3 0  9990,2 55270  69.9999  97.9486 0002423 264.7273  95.3610 14.98325755 19594,6950.206,96.107,573.755,570.387,0.0
55270.0,STARLINK-5301,PAYLOAD,2023-05-24 06:35:16,14.98327605,0.0002401,70.0,97.4436,264.4012,95.6873,0.00011715,1.305e-05,0.0,0 STARLINK-5301,1 55270U 23010B   23144.27449734  .00001305  00000-0  11715-3 0  9996,2 55270  70.0000  97.4436 0002401 264.4012  95.6873 14.98327605 19932,6950.2,96.107,573.734,570.397,0.0
55270.0,STARLINK-5301,PAYLOAD,2023-05-25 22:38:38,14.98332222,0.0002379,70.0001,93.2355,269.7568,90.3319,2.1324e-05,1.62e-06,0.0,0 STARLINK-5301,1 55270U 23010B   23145.94349597  .00000162  00000-0  21324-4 0  9995,2 55270  70.0001  93.2355 0002379 269.7568  90.3319 14.98332222 20182,6950.186,96.107,573.704,570.398,0.0
55270.0,STARLINK-5301,PAYLOAD,2023-05-26 05:03:10,14.98332613,0.0002378,70.0002,92.5623,269.9107,90.178,2.4422e-05,1.99e-06,0.0,0 STARLINK-5301,1 55270U 23010B   23146.21053522  .00000199  00000-0  24422-4 0  9998,2 55270  70.0002  92.5623 0002378 269.9107  90.1780 14.98332613 19916,6950.185,96.107,573.703,570.397,0.0
55270.0,STARLINK-5301,PAYLOAD,2023-05-26 06:39:18,14.98333381,0.0002373,70.0003,92.394,269.8257,90.263,3.2284e-05,2.92e-06,0.0,0 STARLINK-5301,1 55270U 23010B   23146.27729439  .00000292  00000-0  32284-4 0  9990,2 55270  70.0003  92.3940 0002373 269.8257  90.2630 14.98333381 20232,6950.182,96.107,573.697,570.398,0.0
55270.0,STARLINK-5301,PAYLOAD,2023-05-26 21:04:31,14.98328193,0.0002325,70.0004,90.8792,270.1417,89.9476,-1.5875e-05,-2.82e-06,0.0,0 STARLINK-5301,1 55270U 23010B   23146.87813861 -.00000282  00000-0 -15875-4 0  9997,2 55270  70.0004  90.8792 0002325 270.1417  89.9476 14.98328193 20329,6950.198,96.107,573.679,570.448,0.0
55270.0,STARLINK-5301,PAYLOAD,2023-05-27 05:05:11,14.98328348,0.0002321,70.0005,90.0378,270.135,89.9543,-1.3259e-05,-2.51e-06,0.0,0 STARLINK-5301,1 55270U 23010B   23147.21193869 -.00000251  00000-0 -13259-4 0  9995,2 55270  70.0005  90.0378 0002321 270.1350  89.9543 14.98328348 20062,6950.198,96.107,573.676,570.45,0.0
55270.0,STARLINK-5301,PAYLOAD,2023-05-27 21:06:31,14.98331297,0.0002337,70.0006,88.3543,272.0003,88.0889,9.7888e-06,2.4e-07,0.0,0 STARLINK-5301,1 55270U 23010B   23147.87953633  .00000024  00000-0  97888-5 0  9997,2 55270  70.0006  88.3543 0002337 272.0003  88.0889 14.98331297 20475,6950.189,96.107,573.678,570.43,0.0
55270.0,STARLINK-5301,PAYLOAD,2023-05-28 05:07:12,14.98331849,0.0002326,70.0006,87.5129,271.3628,88.7264,1.6942e-05,1.09e-06,0.0,0 STARLINK-5301,1 55270U 23010B   23148.21333558  .00000109  00000-0  16942-4 0  9999,2 55270  70.0006  87.5129 0002326 271.3628  88.7264 14.98331849 20218,6950.187,96.107,573.669,570.436,0.0
55270.0,STARLINK-5301,PAYLOAD,2023-05-28 21:08:32,14.98331255,0.0002405,70.0004,85.8298,270.8864,89.202,5.4754e-05,5.6e-06,0.0,0 STARLINK-5301,1 55270U 23010B   23148.88093409  .00000560  00000-0  54754-4 0  9994,2 55270  70.0004  85.8298 0002405 270.8864  89.2020 14.98331255 20620,6950.189,96.107,573.726,570.382,0.0
55270.0,STARLINK-5301,PAYLOAD,2023-05-29 05:09:12,14.98334216,0.0002373,70.0006,84.9884,269.2309,90.8578,8.2211e-05,8.88e-06,0.0,0 STARLINK-5301,1 55270U 23010B   23149.21473079  .00000888  00000-0  82211-4 0  9999,2 55270  70.0006  84.9884 0002373 269.2309  90.8578 14.98334216 20360,6950.18,96.107,573.694,570.396,0.0
55270.0,STARLINK-5301,PAYLOAD,2023-05-29 21:10:34,14.98325462,0.0002414,70.0011,83.3064,268.1711,91.9172,-6.2884e-05,-8.43e-06,0.0,0 STARLINK-5301,1 55270U 23010B   23149.88234092 -.00000843  00000-0 -62884-4 0  9999,2 55270  70.0011  83.3064 0002414 268.1711  91.9172 14.98325462 20770,6950.207,96.107,573.75,570.394,0.0
55270.0,STARLINK-5301,PAYLOAD,2023-05-30 01:58:58,14.98325458,0.0002433,70.001,82.8006,266.7197,93.3683,-4.9275e-05,-6.81e-06,0.0,0 STARLINK-5301,1 55270U 23010B   23150.08262077 -.00000681  00000-0 -49275-4 0  9996,2 55270  70.0010  82.8006 0002433 266.7197  93.3683 14.98325458 20499,6950.207,96.107,573.763,570.381,0.0
55270.0,STARLINK-5301,PAYLOAD,2023-05-30 05:11:14,14.98325643,0.0002376,70.001,82.4639,265.1433,94.9455,-4.448e-05,-6.23e-06,0.0,0 STARLINK-5301,1 55270U 23010B   23150.21614079 -.00000623  00000-0 -44480-4 0  9993,2 55270  70.0010  82.4639 0002376 265.1433  94.9455 14.98325643 20826,6950.206,96.107,573.723,570.42,0.0
